{"spkid": "20862524", "covariance": {"epoch": "2458038.5", "labels": ["e", "q", "tp", "node", "peri", "i"], "data": [["6.926186604458914E-16", "-1.321380152890286E-15", "1.088528628669241E-13", "2.565216120955801E-13", "-2.074006331106582E-13", "-4.423094945393358E-15"], ["-1.321380152890286E-15", "2.535318709912251E-15", "-1.799097916314827E-13", "-4.877895217827713E-13", "4.030975436896383E-13", "7.380939118486973E-15"], ["1.088528628669241E-13", "-1.799097916314827E-13", "1.470585166499761E-10", "5.33174037553449E-11", "3.307927513931268E-11", "-2.951172801553607E-12"], ["2.565216120955801E-13", "-4.877895217827713E-13", "5.33174037553449E-11", "1.81008369556108E-9", "-1.751970054063269E-9", "4.654515178784867E-11"], ["-2.074006331106582E-13", "4.030975436896383E-13", "3.307927513931268E-11", "-1.751970054063269E-9", "1.764722996105171E-9", "-4.885725848795804E-11"], ["-4.423094945393358E-15", "7.380939118486973E-15", "-2.951172801553607E-12", "4.654515178784867E-11", "-4.885725848795804E-11", "1.390082505762526E-11"]], "elements": [{"label": "e", "name": "e", "sigma": 2.63176492195996e-08, "title": "eccentricity", "value": ".5036359176239428", "units": null}, {"label": "q", "sigma": 5.03519484222036e-08, "name": "q", "value": ".9632353311088004", "title": "perihelion distance", "units": "au"}, {"name": "tp", "sigma": 1.21267685988468e-05, "units": "TDB", "value": "2457982.333642820153", "title": "time of perihelion passage", "label": "tp"}, {"sigma": 4.25450783941113e-05, "name": "om", "units": "deg", "value": "252.3129877699527", "title": "longitude of the ascending node", "label": "node"}, {"name": "w", "sigma": 4.20086062147409e-05, "title": "argument of perihelion", "value": "165.9214656985534", "units": "deg", "label": "peri"}, {"label": "i", "sigma": 3.728381023665e-06, "name": "i", "units": "deg", "title": "inclination", "value": "5.972691495169813"}]}, "elements": [{"name": "e", "sigma": "2.6354E-8", "title": "eccentricity", "value": ".5032616735046422", "units": null, "label": "e"}, {"label": "a", "units": "au", "value": "1.940511262160697", "title": "semi-major axis", "name": "a", "sigma": "7.5659E-9"}, {"label": "q", "name": "q", "sigma": "5.0455E-8", "units": "au", "title": "perihelion distance", "value": ".9639263169110991"}, {"name": "i", "sigma": "3.7349E-6", "units": "deg", "title": "inclination; angle with respect to x-y ecliptic plane", "value": "5.979214217124988", "label": "i"}, {"name": "om", "sigma": "4.2472E-5", "title": "longitude of the ascending node", "value": "252.2421195019494", "units": "deg", "label": "node"}, {"label": "peri", "units": "deg", "title": "argument of perihelion", "value": "166.150174429983", "name": "w", "sigma": "4.1942E-5"}, {"label": "M", "title": "mean anomaly", "value": "92.72848411146353", "units": "deg", "name": "ma", "sigma": "1.0476E-5"}, {"sigma": "2.7334E-5", "name": "tp", "value": "2460946.178347001186", "title": "time of perihelion passage", "units": "TDB", "label": "tp"}, {"name": "per", "sigma": "5.7744E-6", "units": "d", "value": "987.3535187906122", "title": "sidereal orbital period", "label": "period"}, {"units": "deg/d", "value": ".3646110467514778", "title": "mean motion", "name": "n", "sigma": "2.1324E-9", "label": "n"}, {"label": "Q", "name": "ad", "sigma": "1.1374E-8", "value": "2.917096207410295", "title": "aphelion distance", "units": "au"}], "epoch": "2461200.5"}